GOES 1 (SMS-C) [-]      
1 08366U 75100A   22358.19989465 -.00000169  00000+0  00000+0 0  9992
2 08366   7.8164 293.3501 0002728 304.5117 199.1786  1.00240487172326
GOES 2 [-]              
1 10061U 77048A   22358.58794990 -.00000063  00000+0  00000+0 0  9993
2 10061   9.4197 305.1047 0012172  22.6682 161.6275  0.99400934 33641
GOES 3 [-]              
1 10953U 78062A   22358.55526299 -.00000005  00000+0  00000+0 0  9998
2 10953   9.7642 309.7332 0000953 171.9942 191.7195  0.99362078115919
GOES 4 [-]              
1 11964U 80074A   22358.85674253 -.00000159  00000+0  00000+0 0  9994
2 11964  10.7371 313.5586 0031777  77.0542   9.1509  0.99233317114831
GOES 5 [-]              
1 12472U 81049A   22359.09443125 -.00000278  00000+0  00000+0 0  9993
2 12472  11.6291 325.0606 0001212 257.2790 198.4120  1.00264286110228
GOES 6 [-]              
1 14050U 83041A   22358.38151612 -.00000243  00000+0  00000+0 0  9991
2 14050  12.2170 330.4134 0002797 166.6448  15.6061  1.00250247203277
GOES 7 [-]              
1 17561U 87022A   22359.26648274 -.00000155  00000+0  00000+0 0  9999
2 17561  14.0791 347.0024 0003908  56.1206 137.2711  0.99908411114294
GOES 8 [-]              
1 23051U 94022A   22359.44020264 -.00000283  00000+0  00000+0 0  9993
2 23051  13.3391  22.8456 0003807  21.0401 350.7108  0.98907438111562
GOES 9 [-]              
1 23581U 95025A   22359.40699277 -.00000242  00000+0  00000+0 0  9992
2 23581  12.8344  23.2449 0004728 125.7948  67.0005  0.98801961100207
GOES 10 [-]             
1 24786U 97019A   22358.10626177  .00000062  00000+0  00000+0 0  9999
2 24786  11.6348  29.5031 0027485 206.2170 131.5928  0.99121063 93468
GOES 11 [-]             
1 26352U 00022A   22359.27676822  .00000042  00000+0  00000+0 0  9997
2 26352   9.0881  57.7949 0002719 208.5251 329.1311  0.99041483 82412
GOES 12 [-]             
1 26871U 01031A   22358.81229917 -.00000047  00000+0  00000+0 0  9998
2 26871   9.8592  46.9276 0004685 301.9918  58.8289  0.99138043 78177
EWS-G1 (GOES 13) [+]    
1 29155U 06018A   22358.73063024  .00000045  00000+0  00000+0 0  9999
2 29155   1.0638  93.2593 0006145 153.8521 170.7149  1.00275835 30636
GOES 14 [B]             
1 35491U 09033A   22358.52896517 -.00000081  00000+0  00000+0 0  9998
2 35491   0.1359 254.1961 0017555 331.2664 313.7458  1.00269552 49372
GOES 15 [B]             
1 36411U 10008A   22359.40118865  .00000060  00000+0  00000+0 0  9992
2 36411   0.0885 286.5874 0003598 262.8110 281.4082  1.00260705 46920
GOES 16 [+]             
1 41866U 16071A   22358.82311062 -.00000237  00000+0  00000+0 0  9994
2 41866   0.0774 250.3712 0000581  70.2683 353.8070  1.00269706 22376
GOES 17 [+]             
1 43226U 18022A   22359.45624100  .00000106  00000+0  00000+0 0  9998
2 43226   0.0255 151.2646 0000206 155.5455 174.0432  1.00271752 17705
GOES 18 [+]             
1 51850U 22021A   22359.53104905  .00000104  00000+0  00000+0 0  9997
2 51850   0.0225 177.4026 0000920  77.8236 253.0410  1.00272087  3073
